OBJECT_NAME,OBJECT_ID,EPOCH,MEAN_MOTION,ECCENTRICITY,INCLINATION,RA_OF_ASC_NODE,ARG_OF_PERICENTER,MEAN_ANOMALY,EPHEMERIS_TYPE,CLASSIFICATION_TYPE,NORAD_CAT_ID,ELEMENT_SET_NO,REV_AT_EPOCH,BSTAR,MEAN_MOTION_DOT,MEAN_MOTION_DDOT
CUBEBUG-2 (LO-74),2013-066AA,2026-06-19T06:34:08.824800,14.93777947,.00582556,97.8910,119.2605,22.3553,338.0186,0,U,39440,999,67730,.39344021E-3,.425E-4,0
FUNCUBE-1 (AO-73),2013-066AE,2026-06-19T04:16:01.296192,15.09509465,.00358136,97.8280,141.6651,193.8693,166.1555,0,U,39444,999,67996,.30581626E-3,.4907E-4,0
UWE-3,2013-066AG,2026-06-19T03:41:46.643712,14.97037831,.00473207,97.8700,126.2408,314.5576,45.1785,0,U,39446,999,67787,.31637826E-3,.3664E-4,0
UNISAT-6,2014-033C,2026-06-19T03:36:27.708480,14.88253836,.0046165,97.7885,322.8273,63.0276,297.5644,0,U,40012,999,64645,.22642137E-3,.2076E-4,0
DUCHIFAT-1,2014-033M,2026-06-18T16:25:31.161216,15.64848252,.0002814,98.0447,229.0553,113.8680,246.2872,0,U,40021,999,65598,.89915901E-3,.88318E-3,0
QB50P1,2014-033R,2026-06-19T06:13:02.525664,15.18285787,.00080059,98.0964,181.5504,207.6997,152.3810,0,U,40025,999,65334,.33443702E-3,.6785E-4,0
LILACSAT-2,2015-049K,2026-06-19T08:04:05.011104,15.51503390,.00056343,97.4640,207.2597,234.8814,125.1911,0,U,40908,999,59608,.25077326E-3,.14738E-3,0
FOX-1A (AO-85),2015-058D,2026-06-19T07:08:43.007136,14.90977573,.01305679,64.7756,272.4251,55.7770,305.5632,0,U,40967,999,11388,.16855506E-3,.1785E-4,0
CAS-2T & KS-1Q,2016-066G,2026-06-19T02:39:21.231360,14.44699826,.03428428,98.3821,245.8251,123.6625,239.7766,0,U,41847,999,50507,.19361605E-3,.1331E-4,0
RADFXSAT (FOX-1B),2017-073E,2026-06-17T14:31:00.659136,15.12722439,.0149538,97.4696,35.8108,327.7970,31.4193,0,U,43017,999,46545,.24962E-3,.5679E-4,0
DIWATA-2B,2018-084H,2026-06-19T07:17:35.219904,15.00459215,.00127155,98.1183,6.6032,163.3714,196.7928,0,U,43678,999,41653,.13579965E-3,.1646E-4,0
ES'HAIL 2,2018-090A,2026-06-19T06:09:19.965312,1.00271825,.00017419,0.0116,48.4976,75.7738,261.3229,0,U,43700,999,2769,0,.138E-5,0
FOX-1CLIFF (AO-95),2018-099N,2026-06-19T02:37:38.766144,15.26744431,.00077637,97.4376,230.3486,350.5763,9.5328,0,U,43770,999,41351,.34759477E-3,.9076E-4,0
ITASAT,2018-099AE,2026-06-19T03:06:35.089056,15.19077032,.00118943,97.4024,221.6025,353.4838,6.6240,0,U,43786,999,41320,.23858407E-3,.4944E-4,0
JY1SAT (JO-97),2018-099AX,2026-06-19T02:50:25.032192,15.33703718,.00044685,97.4126,232.9593,253.2846,106.7906,0,U,43803,999,41392,.4382212E-3,.14216E-3,0
UWE-4,2018-111E,2026-06-18T18:26:26.240928,15.46206755,.00052601,97.5851,98.2321,335.4333,24.6665,0,U,43880,999,41102,.55973132E-3,.27476E-3,0
TIANYAN 01,2019-093C,2026-06-19T08:00:04.004352,14.86519950,.00150388,97.7530,242.5134,80.5295,279.7620,0,U,44881,999,35173,.17543827E-4,.102E-5,0
RS-44 & BREEZE-KM R/B,2019-096E,2026-06-19T04:39:45.160416,12.79748867,.0218247,82.5220,338.3709,139.4899,222.2680,0,U,44909,999,30260,-.9959032E-5,.1E-6,0
SALSAT,2020-068K,2026-06-18T23:26:50.722944,15.29820569,.000795,97.8853,173.1506,300.6759,59.3696,0,U,46495,999,31563,.2105E-3,.5999E-4,0
XW-3 (CAS-9),2021-131B,2026-06-19T06:37:28.502112,14.41358755,.0005398,98.4985,262.6544,92.3254,267.8553,0,U,50466,999,23541,.10251593E-3,.288E-5,0
GREENCUBE (IO-117),2022-080E,2026-06-18T10:18:19.245024,6.42583246,.0008904,70.1442,297.8130,289.4279,70.5418,0,U,53109,999,9214,0,-.3E-7,0
UMKA 1 (RS40S),2023-091G,2026-06-19T04:47:06.562464,15.20837952,.00142921,97.5046,228.8890,111.3855,248.8906,0,U,57172,999,16431,.23169989E-3,.5056E-4,0
CUBESX-HSE 3 (RS42S),2023-091N,2026-06-19T04:47:30.267168,15.31257745,.00119873,97.5087,235.8124,88.6512,271.6102,0,U,57178,999,16473,.38056987E-3,.1144E-3,0
MONITOR-3 (RS58S),2023-091Q,2026-06-19T07:03:28.658016,15.27877646,.00130746,97.5078,233.7557,94.3260,265.9474,0,U,57180,999,16461,.32551874E-3,.8806E-4,0
MONITOR-4 (RS57S),2023-091S,2026-06-19T06:33:09.050688,15.27962944,.00130593,97.5072,233.7058,94.7526,265.5205,0,U,57182,999,16461,.33494742E-3,.9087E-4,0
MONITOR-2 (RS39S),2023-091U,2026-06-19T06:56:13.012800,15.18927327,.00127689,97.5068,228.5585,104.7551,255.5099,0,U,57184,999,16427,.19646791E-3,.4041E-4,0
SVYATOBOR 1 (RS60S),2023-091X,2026-06-19T06:54:35.188128,15.26645457,.00108385,97.5085,234.1166,88.2379,272.0101,0,U,57187,999,16463,.28178023E-3,.7325E-4,0
VIZARD-METEO (RS38S),2023-091Z,2026-06-19T05:34:24.348864,15.36081107,.00081392,97.5087,239.7584,71.6417,288.5711,0,U,57189,999,16500,.40032202E-3,.14009E-3,0
POLYTECH-UNIVERSE 3 (RS46S),2023-091AB,2026-06-19T06:00:08.092224,15.19129456,.00169612,97.5043,228.0243,120.2228,240.0688,0,U,57191,999,16426,.20904372E-3,.4337E-4,0
UTMN 2 (RS27S),2023-091AP,2026-06-19T06:45:17.784576,15.32095257,.00091613,97.5083,237.5318,77.4838,282.7427,0,U,57203,999,16486,.35460613E-3,.10926E-3,0
